STARLINK-32292          
1 61889U 24204R   26068.53812908 -.00000873  00000+0 -17371-4 0  9994
2 61889  53.1601 127.8321 0001045 122.8246 237.2855 15.30187281 75076
TEVEL2-2                
1 63219U 25052K   26068.64848259  .00020339  00000+0  69428-3 0  9991
2 63219  97.3987 324.7700 0004693 105.7930 254.3828 15.30343745 54855
